CCSDS_OMM_VERS = 2.0
CREATION_DATE  = 
ORIGINATOR     = 

OBJECT_NAME    = SOYUZ-MS 28
OBJECT_ID      = 2025-275A
CENTER_NAME    = EARTH
REF_FRAME      = TEME
TIME_SYSTEM    = UTC
MEAN_ELEMENT_THEORY = SGP/SGP4

EPOCH          = 2025-12-25T05:52:58.411200
MEAN_MOTION    = 15.49803499
ECCENTRICITY   = .00032029
INCLINATION    = 51.6316
RA_OF_ASC_NODE = 80.5467
ARG_OF_PERICENTER = 298.8467
MEAN_ANOMALY   = 61.2200

EPHEMERIS_TYPE = 0
CLASSIFICATION_TYPE = U
NORAD_CAT_ID   = 66664
ELEMENT_SET_NO = 999
REV_AT_EPOCH   = 128
BSTAR          = .25322562E-3
MEAN_MOTION_DOT = .13923E-3
MEAN_MOTION_DDOT = 0

CCSDS_OMM_VERS = 2.0
CREATION_DATE  = 
ORIGINATOR     = 

OBJECT_NAME    = 1998-067XS
OBJECT_ID      = 1998-067XS
CENTER_NAME    = EARTH
REF_FRAME      = TEME
TIME_SYSTEM    = UTC
MEAN_ELEMENT_THEORY = SGP/SGP4

EPOCH          = 2025-12-25T05:31:02.274816
MEAN_MOTION    = 15.51241036
ECCENTRICITY   = .00027545
INCLINATION    = 51.6322
RA_OF_ASC_NODE = 80.4463
ARG_OF_PERICENTER = 265.4219
MEAN_ANOMALY   = 94.6456

EPHEMERIS_TYPE = 0
CLASSIFICATION_TYPE = U
NORAD_CAT_ID   = 66906
ELEMENT_SET_NO = 999
REV_AT_EPOCH   = 355
BSTAR          = .49047062E-3
MEAN_MOTION_DOT = .289E-3
MEAN_MOTION_DDOT = 0

CCSDS_OMM_VERS = 2.0
CREATION_DATE  = 
ORIGINATOR     = 

OBJECT_NAME    = 1998-067XT
OBJECT_ID      = 1998-067XT
CENTER_NAME    = EARTH
REF_FRAME      = TEME
TIME_SYSTEM    = UTC
MEAN_ELEMENT_THEORY = SGP/SGP4

EPOCH          = 2025-12-24T10:39:56.166048
MEAN_MOTION    = 15.52879993
ECCENTRICITY   = .00038856
INCLINATION    = 51.6313
RA_OF_ASC_NODE = 84.2012
ARG_OF_PERICENTER = 298.2919
MEAN_ANOMALY   = 61.7678

EPHEMERIS_TYPE = 0
CLASSIFICATION_TYPE = U
NORAD_CAT_ID   = 66907
ELEMENT_SET_NO = 999
REV_AT_EPOCH   = 343
BSTAR          = .10726177E-2
MEAN_MOTION_DOT = .67981E-3
MEAN_MOTION_DDOT = 0

CCSDS_OMM_VERS = 2.0
CREATION_DATE  = 
ORIGINATOR     = 

OBJECT_NAME    = 1998-067XU
OBJECT_ID      = 1998-067XU
CENTER_NAME    = EARTH
REF_FRAME      = TEME
TIME_SYSTEM    = UTC
MEAN_ELEMENT_THEORY = SGP/SGP4

EPOCH          = 2025-12-24T10:38:25.805472
MEAN_MOTION    = 15.52977314
ECCENTRICITY   = .00038638
INCLINATION    = 51.6323
RA_OF_ASC_NODE = 84.1936
ARG_OF_PERICENTER = 296.7785
MEAN_ANOMALY   = 63.2809

EPHEMERIS_TYPE = 0
CLASSIFICATION_TYPE = U
NORAD_CAT_ID   = 66908
ELEMENT_SET_NO = 999
REV_AT_EPOCH   = 343
BSTAR          = .10585814E-2
MEAN_MOTION_DOT = .67317E-3
MEAN_MOTION_DDOT = 0

CCSDS_OMM_VERS = 2.0
CREATION_DATE  = 
ORIGINATOR     = 

OBJECT_NAME    = SILVERSAT
OBJECT_ID      = 1998-067XV
CENTER_NAME    = EARTH
REF_FRAME      = TEME
TIME_SYSTEM    = UTC
MEAN_ELEMENT_THEORY = SGP/SGP4

EPOCH          = 2025-12-24T12:08:54.950784
MEAN_MOTION    = 15.53202951
ECCENTRICITY   = .00038249
INCLINATION    = 51.6310
RA_OF_ASC_NODE = 83.8633
ARG_OF_PERICENTER = 300.8028
MEAN_ANOMALY   = 59.2585

EPHEMERIS_TYPE = 0
CLASSIFICATION_TYPE = U
NORAD_CAT_ID   = 66909
ELEMENT_SET_NO = 999
REV_AT_EPOCH   = 344
BSTAR          = .11617624E-2
MEAN_MOTION_DOT = .74602E-3
MEAN_MOTION_DDOT = 0

CCSDS_OMM_VERS = 2.0
CREATION_DATE  = 
ORIGINATOR     = 

OBJECT_NAME    = 1998-067XW
OBJECT_ID      = 1998-067XW
CENTER_NAME    = EARTH
REF_FRAME      = TEME
TIME_SYSTEM    = UTC
MEAN_ELEMENT_THEORY = SGP/SGP4

EPOCH          = 2025-12-25T05:05:39.018624
MEAN_MOTION    = 15.53228929
ECCENTRICITY   = .00038368
INCLINATION    = 51.6308
RA_OF_ASC_NODE = 80.3284
ARG_OF_PERICENTER = 278.3824
MEAN_ANOMALY   = 81.6731

EPHEMERIS_TYPE = 0
CLASSIFICATION_TYPE = U
NORAD_CAT_ID   = 66910
ELEMENT_SET_NO = 999
REV_AT_EPOCH   = 355
BSTAR          = .10169127E-2
MEAN_MOTION_DOT = .65225E-3
MEAN_MOTION_DDOT = 0

CCSDS_OMM_VERS = 2.0
CREATION_DATE  = 
ORIGINATOR     = 

OBJECT_NAME    = 1998-067XX
OBJECT_ID      = 1998-067XX
CENTER_NAME    = EARTH
REF_FRAME      = TEME
TIME_SYSTEM    = UTC
MEAN_ELEMENT_THEORY = SGP/SGP4

EPOCH          = 2025-12-24T22:49:37.455744
MEAN_MOTION    = 15.53703475
ECCENTRICITY   = .00035293
INCLINATION    = 51.6305
RA_OF_ASC_NODE = 81.5850
ARG_OF_PERICENTER = 283.5602
MEAN_ANOMALY   = 76.4995

EPHEMERIS_TYPE = 0
CLASSIFICATION_TYPE = U
NORAD_CAT_ID   = 66911
ELEMENT_SET_NO = 999
REV_AT_EPOCH   = 350
BSTAR          = .11925494E-2
MEAN_MOTION_DOT = .78033E-3
MEAN_MOTION_DDOT = 0

CCSDS_OMM_VERS = 2.0
CREATION_DATE  = 
ORIGINATOR     = 

OBJECT_NAME    = 1998-067XY
OBJECT_ID      = 1998-067XY
CENTER_NAME    = EARTH
REF_FRAME      = TEME
TIME_SYSTEM    = UTC
MEAN_ELEMENT_THEORY = SGP/SGP4

EPOCH          = 2025-12-25T05:18:48.744000
MEAN_MOTION    = 15.52348997
ECCENTRICITY   = .00038732
INCLINATION    = 51.6320
RA_OF_ASC_NODE = 80.3904
ARG_OF_PERICENTER = 295.0134
MEAN_ANOMALY   = 65.0453

EPHEMERIS_TYPE = 0
CLASSIFICATION_TYPE = U
NORAD_CAT_ID   = 66912
ELEMENT_SET_NO = 999
REV_AT_EPOCH   = 354
BSTAR          = .84033216E-3
MEAN_MOTION_DOT = .52036E-3
MEAN_MOTION_DDOT = 0

