SOYUZ-MS 28             
1 66664U 25275A   25359.24512050  .00013923  00000+0  25323-3 0  9997
2 66664  51.6316  80.5467 0003202 298.8467  61.2200 15.49803499  1287
1998-067XS              
1 66906U 98067XS  25359.22988744  .00028900  00000+0  49047-3 0  9990
2 66906  51.6322  80.4463 0002754 265.4219  94.6456 15.51241036  3555
1998-067XT              
1 66907U 98067XT  25358.44440007  .00067981  00000+0  10726-2 0  9992
2 66907  51.6313  84.2012 0003885 298.2919  61.7678 15.52879993  3433
1998-067XU              
1 66908U 98067XU  25358.44335423  .00067317  00000+0  10586-2 0  9995
2 66908  51.6323  84.1936 0003863 296.7785  63.2809 15.52977314  3438
SILVERSAT               
1 66909U 98067XV  25358.50619156  .00074602  00000+0  11618-2 0  9993
2 66909  51.6310  83.8633 0003824 300.8028  59.2585 15.53202951  3445
1998-067XW              
1 66910U 98067XW  25359.21225716  .00065225  00000+0  10169-2 0  9990
2 66910  51.6308  80.3284 0003836 278.3824  81.6731 15.53228929  3551
1998-067XX              
1 66911U 98067XX  25358.95112796  .00078033  00000+0  11925-2 0  9996
2 66911  51.6305  81.5850 0003529 283.5602  76.4995 15.53703475  3505
1998-067XY              
1 66912U 98067XY  25359.22139750  .00052036  00000+0  84033-3 0  9993
2 66912  51.6320  80.3904 0003873 295.0134  65.0453 15.52348997  3540
